<?xml version="1.0" encoding="UTF-8"?>
<ndm xmlns:xsi="http://www.w3.org/2001/XMLSchema-instance" xsi:noNamespaceSchemaLocation="https://sanaregistry.org/r/ndmxml_unqualified/ndmxml-2.0.0-master-2.0.xsd">
<omm id="CCSDS_OMM_VERS" version="2.0">
<header><CREATION_DATE/><ORIGINATOR/></header><body><segment><metadata><OBJECT_NAME>IRIDIUM 57</OBJECT_NAME><OBJECT_ID>1998-019B</OBJECT_ID><CENTER_NAME>EARTH</CENTER_NAME><REF_FRAME>TEME</REF_FRAME><TIME_SYSTEM>UTC</TIME_SYSTEM><MEAN_ELEMENT_THEORY>SGP4</MEAN_ELEMENT_THEORY></metadata><data><meanElements><EPOCH>2024-06-23T10:06:12.919968</EPOCH><MEAN_MOTION>14.35255817</MEAN_MOTION><ECCENTRICITY>.0002142</ECCENTRICITY><INCLINATION>86.3956</INCLINATION><RA_OF_ASC_NODE>295.5095</RA_OF_ASC_NODE><ARG_OF_PERICENTER>94.0595</ARG_OF_PERICENTER><MEAN_ANOMALY>266.0847</MEAN_ANOMALY></meanElements><tleParameters><EPHEMERIS_TYPE>0</EPHEMERIS_TYPE><CLASSIFICATION_TYPE>U</CLASSIFICATION_TYPE><NORAD_CAT_ID>25273</NORAD_CAT_ID><ELEMENT_SET_NO>999</ELEMENT_SET_NO><REV_AT_EPOCH>37352</REV_AT_EPOCH><BSTAR>.15404E-3</BSTAR><MEAN_MOTION_DOT>.46E-5</MEAN_MOTION_DOT><MEAN_MOTION_DDOT>0</MEAN_MOTION_DDOT></tleParameters></data></segment></body></omm>
<omm id="CCSDS_OMM_VERS" version="2.0">
<header><CREATION_DATE/><ORIGINATOR/></header><body><segment><metadata><OBJECT_NAME>IRIDIUM 63</OBJECT_NAME><OBJECT_ID>1998-021B</OBJECT_ID><CENTER_NAME>EARTH</CENTER_NAME><REF_FRAME>TEME</REF_FRAME><TIME_SYSTEM>UTC</TIME_SYSTEM><MEAN_ELEMENT_THEORY>SGP4</MEAN_ELEMENT_THEORY></metadata><data><meanElements><EPOCH>2024-06-23T03:55:24.544128</EPOCH><MEAN_MOTION>14.35806763</MEAN_MOTION><ECCENTRICITY>.0002276</ECCENTRICITY><INCLINATION>86.3994</INCLINATION><RA_OF_ASC_NODE>232.5151</RA_OF_ASC_NODE><ARG_OF_PERICENTER>89.0837</ARG_OF_PERICENTER><MEAN_ANOMALY>271.0621</MEAN_ANOMALY></meanElements><tleParameters><EPHEMERIS_TYPE>0</EPHEMERIS_TYPE><CLASSIFICATION_TYPE>U</CLASSIFICATION_TYPE><NORAD_CAT_ID>25286</NORAD_CAT_ID><ELEMENT_SET_NO>999</ELEMENT_SET_NO><REV_AT_EPOCH>37258</REV_AT_EPOCH><BSTAR>.13868E-3</BSTAR><MEAN_MOTION_DOT>.421E-5</MEAN_MOTION_DOT><MEAN_MOTION_DDOT>0</MEAN_MOTION_DDOT></tleParameters></data></segment></body></omm>
<omm id="CCSDS_OMM_VERS" version="2.0">
<header><CREATION_DATE/><ORIGINATOR/></header><body><segment><metadata><OBJECT_NAME>IRIDIUM 69</OBJECT_NAME><OBJECT_ID>1998-026A</OBJECT_ID><CENTER_NAME>EARTH</CENTER_NAME><REF_FRAME>TEME</REF_FRAME><TIME_SYSTEM>UTC</TIME_SYSTEM><MEAN_ELEMENT_THEORY>SGP4</MEAN_ELEMENT_THEORY></metadata><data><meanElements><EPOCH>2024-06-23T05:08:46.397760</EPOCH><MEAN_MOTION>14.40047427</MEAN_MOTION><ECCENTRICITY>.000443</ECCENTRICITY><INCLINATION>86.3980</INCLINATION><RA_OF_ASC_NODE>246.8620</RA_OF_ASC_NODE><ARG_OF_PERICENTER>110.9855</ARG_OF_PERICENTER><MEAN_ANOMALY>249.1818</MEAN_ANOMALY></meanElements><tleParameters><EPHEMERIS_TYPE>0</EPHEMERIS_TYPE><CLASSIFICATION_TYPE>U</CLASSIFICATION_TYPE><NORAD_CAT_ID>25319</NORAD_CAT_ID><ELEMENT_SET_NO>999</ELEMENT_SET_NO><REV_AT_EPOCH>37162</REV_AT_EPOCH><BSTAR>.1738E-3</BSTAR><MEAN_MOTION_DOT>.567E-5</MEAN_MOTION_DOT><MEAN_MOTION_DDOT>0</MEAN_MOTION_DDOT></tleParameters></data></segment></body></omm>
<omm id="CCSDS_OMM_VERS" version="2.0">
<header><CREATION_DATE/><ORIGINATOR/></header><body><segment><metadata><OBJECT_NAME>IRIDIUM 71</OBJECT_NAME><OBJECT_ID>1998-026B</OBJECT_ID><CENTER_NAME>EARTH</CENTER_NAME><REF_FRAME>TEME</REF_FRAME><TIME_SYSTEM>UTC</TIME_SYSTEM><MEAN_ELEMENT_THEORY>SGP4</MEAN_ELEMENT_THEORY></metadata><data><meanElements><EPOCH>2024-06-23T05:06:55.482624</EPOCH><MEAN_MOTION>14.40359121</MEAN_MOTION><ECCENTRICITY>.0002937</ECCENTRICITY><INCLINATION>86.3982</INCLINATION><RA_OF_ASC_NODE>241.6222</RA_OF_ASC_NODE><ARG_OF_PERICENTER>140.4862</ARG_OF_PERICENTER><MEAN_ANOMALY>219.6551</MEAN_ANOMALY></meanElements><tleParameters><EPHEMERIS_TYPE>0</EPHEMERIS_TYPE><CLASSIFICATION_TYPE>U</CLASSIFICATION_TYPE><NORAD_CAT_ID>25320</NORAD_CAT_ID><ELEMENT_SET_NO>999</ELEMENT_SET_NO><REV_AT_EPOCH>37215</REV_AT_EPOCH><BSTAR>.15216E-3</BSTAR><MEAN_MOTION_DOT>.502E-5</MEAN_MOTION_DOT><MEAN_MOTION_DDOT>0</MEAN_MOTION_DDOT></tleParameters></data></segment></body></omm>
<omm id="CCSDS_OMM_VERS" version="2.0">
<header><CREATION_DATE/><ORIGINATOR/></header><body><segment><metadata><OBJECT_NAME>IRIDIUM 73</OBJECT_NAME><OBJECT_ID>1998-032C</OBJECT_ID><CENTER_NAME>EARTH</CENTER_NAME><REF_FRAME>TEME</REF_FRAME><TIME_SYSTEM>UTC</TIME_SYSTEM><MEAN_ELEMENT_THEORY>SGP4</MEAN_ELEMENT_THEORY></metadata><data><meanElements><EPOCH>2024-06-23T12:13:51.421152</EPOCH><MEAN_MOTION>14.50588081</MEAN_MOTION><ECCENTRICITY>.0002878</ECCENTRICITY><INCLINATION>86.4441</INCLINATION><RA_OF_ASC_NODE>198.9360</RA_OF_ASC_NODE><ARG_OF_PERICENTER>98.4066</ARG_OF_PERICENTER><MEAN_ANOMALY>261.7465</MEAN_ANOMALY></meanElements><tleParameters><EPHEMERIS_TYPE>0</EPHEMERIS_TYPE><CLASSIFICATION_TYPE>U</CLASSIFICATION_TYPE><NORAD_CAT_ID>25344</NORAD_CAT_ID><ELEMENT_SET_NO>999</ELEMENT_SET_NO><REV_AT_EPOCH>37884</REV_AT_EPOCH><BSTAR>.15379E-3</BSTAR><MEAN_MOTION_DOT>.623E-5</MEAN_MOTION_DOT><MEAN_MOTION_DDOT>0</MEAN_MOTION_DDOT></tleParameters></data></segment></body></omm>
<omm id="CCSDS_OMM_VERS" version="2.0">
<header><CREATION_DATE/><ORIGINATOR/></header><body><segment><metadata><OBJECT_NAME>IRIDIUM 82</OBJECT_NAME><OBJECT_ID>1998-051A</OBJECT_ID><CENTER_NAME>EARTH</CENTER_NAME><REF_FRAME>TEME</REF_FRAME><TIME_SYSTEM>UTC</TIME_SYSTEM><MEAN_ELEMENT_THEORY>SGP4</MEAN_ELEMENT_THEORY></metadata><data><meanElements><EPOCH>2024-06-22T20:09:41.795712</EPOCH><MEAN_MOTION>15.10425535</MEAN_MOTION><ECCENTRICITY>.012692</ECCENTRICITY><INCLINATION>86.3768</INCLINATION><RA_OF_ASC_NODE>283.0878</RA_OF_ASC_NODE><ARG_OF_PERICENTER>199.0859</ARG_OF_PERICENTER><MEAN_ANOMALY>160.5603</MEAN_ANOMALY></meanElements><tleParameters><EPHEMERIS_TYPE>0</EPHEMERIS_TYPE><CLASSIFICATION_TYPE>U</CLASSIFICATION_TYPE><NORAD_CAT_ID>25467</NORAD_CAT_ID><ELEMENT_SET_NO>999</ELEMENT_SET_NO><REV_AT_EPOCH>36934</REV_AT_EPOCH><BSTAR>.77621E-3</BSTAR><MEAN_MOTION_DOT>.15522E-3</MEAN_MOTION_DOT><MEAN_MOTION_DDOT>0</MEAN_MOTION_DDOT></tleParameters></data></segment></body></omm>
<omm id="CCSDS_OMM_VERS" version="2.0">
<header><CREATION_DATE/><ORIGINATOR/></header><body><segment><metadata><OBJECT_NAME>IRIDIUM 2</OBJECT_NAME><OBJECT_ID>1998-066A</OBJECT_ID><CENTER_NAME>EARTH</CENTER_NAME><REF_FRAME>TEME</REF_FRAME><TIME_SYSTEM>UTC</TIME_SYSTEM><MEAN_ELEMENT_THEORY>SGP4</MEAN_ELEMENT_THEORY></metadata><data><meanElements><EPOCH>2024-06-23T09:10:47.096256</EPOCH><MEAN_MOTION>16.05122436</MEAN_MOTION><ECCENTRICITY>.0010215</ECCENTRICITY><INCLINATION>85.4902</INCLINATION><RA_OF_ASC_NODE>298.7900</RA_OF_ASC_NODE><ARG_OF_PERICENTER>261.2405</ARG_OF_PERICENTER><MEAN_ANOMALY>98.7726</MEAN_ANOMALY></meanElements><tleParameters><EPHEMERIS_TYPE>0</EPHEMERIS_TYPE><CLASSIFICATION_TYPE>U</CLASSIFICATION_TYPE><NORAD_CAT_ID>25527</NORAD_CAT_ID><ELEMENT_SET_NO>999</ELEMENT_SET_NO><REV_AT_EPOCH>40843</REV_AT_EPOCH><BSTAR>.12033E-2</BSTAR><MEAN_MOTION_DOT>.822872E-2</MEAN_MOTION_DOT><MEAN_MOTION_DDOT>.34464E-3</MEAN_MOTION_DDOT></tleParameters></data></segment></body></omm>
</ndm>
