IRIDIUM 57              
1 25273U 98019B   24175.42098287  .00000460  00000+0  15404-3 0  9991
2 25273  86.3956 295.5095 0002142  94.0595 266.0847 14.35255817373528
IRIDIUM 63              
1 25286U 98021B   24175.16347852  .00000421  00000+0  13868-3 0  9993
2 25286  86.3994 232.5151 0002276  89.0837 271.0621 14.35806763372582
IRIDIUM 69              
1 25319U 98026A   24175.21442590  .00000567  00000+0  17380-3 0  9990
2 25319  86.3980 246.8620 0004430 110.9855 249.1818 14.40047427371629
IRIDIUM 71              
1 25320U 98026B   24175.21314216  .00000502  00000+0  15216-3 0  9990
2 25320  86.3982 241.6222 0002937 140.4862 219.6551 14.40359121372152
IRIDIUM 73              
1 25344U 98032C   24175.50962293  .00000623  00000+0  15379-3 0  9993
2 25344  86.4441 198.9360 0002878  98.4066 261.7465 14.50588081378842
IRIDIUM 82              
1 25467U 98051A   24174.84006708  .00015522  00000+0  77621-3 0  9998
2 25467  86.3768 283.0878 0126920 199.0859 160.5603 15.10425535369348
IRIDIUM 2               
1 25527U 98066A   24175.38248954  .00822872  34464-3  12033-2 0  9996
2 25527  85.4902 298.7900 0010215 261.2405  98.7726 16.05122436408433
